{"type":"FeatureCollection","features":[{"type":"Feature","properties":{"id":237,"height":8.7,"type":"commercial","src":"microsoft","inside":true,"plazaId":"centro-zibata","interactive":true},"geometry":{"type":"Polygon","coordinates":[[[-100.33987,20.681005],[-100.339832,20.680992],[-100.339806,20.681058],[-100.339845,20.681071],[-100.33987,20.681005]]]}},{"type":"Feature","properties":{"id":489,"height":8.4,"type":"commercial","src":"google","inside":true,"plazaId":"centro-zibata","interactive":true},"geometry":{"type":"Polygon","coordinates":[[[-100.340693,20.68125],[-100.340678,20.681288],[-100.340731,20.681307],[-100.340746,20.681269],[-100.340693,20.68125]]]}},{"type":"Feature","properties":{"id":2699,"height":9,"type":"commercial","src":"microsoft","inside":true,"plazaId":"centro-zibata","interactive":true},"geometry":{"type":"Polygon","coordinates":[[[-100.340524,20.681126],[-100.340395,20.681356],[-100.339771,20.68105],[-100.339713,20.681155],[-100.340113,20.68135],[-100.340142,20.681297],[-100.340399,20.681423],[-100.340358,20.681497],[-100.340463,20.681548],[-100.340662,20.681194],[-100.340524,20.681126]]]}},{"type":"Feature","properties":{"id":10298,"height":7.7,"type":"commercial","src":"google","inside":true,"plazaId":"centro-zibata","interactive":true},"geometry":{"type":"Polygon","coordinates":[[[-100.340662,20.681315],[-100.340615,20.681389],[-100.34065,20.681409],[-100.340697,20.681335],[-100.340662,20.681315]]]}},{"type":"Feature","properties":{"id":1036,"height":8.9,"type":"commercial","src":"microsoft","inside":true,"plazaId":"plaza-zielo","interactive":true},"geometry":{"type":"Polygon","coordinates":[[[-100.322767,20.674746],[-100.323192,20.674719],[-100.323182,20.674587],[-100.322437,20.674633],[-100.322455,20.674883],[-100.322775,20.674863],[-100.322767,20.674746]]]}},{"type":"Feature","properties":{"id":14052,"height":6,"type":"commercial","src":"synthetic","inside":true,"plazaId":"campo-de-golf","interactive":true},"geometry":{"type":"Polygon","coordinates":[[[-100.337943,20.682895],[-100.338033,20.682715],[-100.337737,20.682585],[-100.337647,20.682765],[-100.337943,20.682895]]]}},{"type":"Feature","properties":{"id":3146,"height":10.2,"type":"commercial","src":"osm","inside":true,"plazaId":"anahuac-queretaro","interactive":true},"geometry":{"type":"Polygon","coordinates":[[[-100.31294,20.680666],[-100.31314,20.680645],[-100.313235,20.680509],[-100.313183,20.680306],[-100.3132,20.680253],[-100.313129,20.680206],[-100.312823,20.680247],[-100.312725,20.680387],[-100.312758,20.680549],[-100.31294,20.680666]]]}},{"type":"Feature","properties":{"id":4474,"height":7.9,"type":"commercial","src":"google","inside":true,"plazaId":"xentric-anahuac","interactive":true},"geometry":{"type":"Polygon","coordinates":[[[-100.312962,20.677467],[-100.312598,20.677932],[-100.312699,20.678002],[-100.31299,20.677631],[-100.313158,20.677748],[-100.312761,20.678254],[-100.31286,20.678322],[-100.313257,20.677816],[-100.313566,20.678031],[-100.313639,20.677937],[-100.312962,20.677467]]]}},{"type":"Feature","properties":{"id":6553,"height":9,"type":"commercial","src":"google","inside":true,"plazaId":"xentric-anahuac","interactive":true},"geometry":{"type":"Polygon","coordinates":[[[-100.313664,20.677796],[-100.313605,20.677869],[-100.313656,20.677905],[-100.313714,20.677831],[-100.313664,20.677796]]]}},{"type":"Feature","properties":{"id":7434,"height":8.1,"type":"commercial","src":"google","inside":true,"plazaId":"xentric-anahuac","interactive":true},"geometry":{"type":"Polygon","coordinates":[[[-100.313931,20.678113],[-100.313858,20.678207],[-100.314154,20.678408],[-100.313893,20.678748],[-100.31401,20.678826],[-100.314043,20.678783],[-100.314025,20.67877],[-100.314325,20.67838],[-100.313931,20.678113]]]}},{"type":"Feature","properties":{"id":7787,"height":8,"type":"commercial","src":"google","inside":true,"plazaId":"xentric-anahuac","interactive":true},"geometry":{"type":"Polygon","coordinates":[[[-100.313344,20.677559],[-100.313277,20.677647],[-100.31333,20.677683],[-100.313398,20.677595],[-100.313344,20.677559]]]}},{"type":"Feature","properties":{"id":9908,"height":7.7,"type":"commercial","src":"microsoft","inside":true,"plazaId":"xentric-anahuac","interactive":true},"geometry":{"type":"Polygon","coordinates":[[[-100.313317,20.678403],[-100.31322,20.678547],[-100.313291,20.678589],[-100.313388,20.678445],[-100.313317,20.678403]]]}},{"type":"Feature","properties":{"id":11942,"height":7.1,"type":"commercial","src":"microsoft","inside":true,"plazaId":"xentric-anahuac","interactive":true},"geometry":{"type":"Polygon","coordinates":[[[-100.313615,20.678592],[-100.313538,20.678549],[-100.313445,20.678693],[-100.313522,20.678736],[-100.313615,20.678592]]]}},{"type":"Feature","properties":{"id":14051,"height":8,"type":"commercial","src":"synthetic","inside":true,"plazaId":"xentric-zibata","interactive":true},"geometry":{"type":"Polygon","coordinates":[[[-100.326476,20.684062],[-100.326637,20.683888],[-100.326056,20.683416],[-100.325895,20.68359],[-100.326476,20.684062]]]}},{"type":"Feature","properties":{"id":5016,"height":8.4,"type":"commercial","src":"microsoft","inside":true,"plazaId":"condesa","interactive":true},"geometry":{"type":"Polygon","coordinates":[[[-100.316255,20.680656],[-100.316927,20.681101],[-100.317001,20.681003],[-100.316329,20.680558],[-100.316255,20.680656]]]}},{"type":"Feature","properties":{"id":14049,"height":9,"type":"commercial","src":"synthetic","inside":true,"plazaId":"paseo-zibata","interactive":true},"geometry":{"type":"Polygon","coordinates":[[[-100.315085,20.679651],[-100.315336,20.679339],[-100.314883,20.679021],[-100.314632,20.679333],[-100.315085,20.679651]]]}},{"type":"Feature","properties":{"id":8016,"height":10.9,"type":"commercial","src":"microsoft","inside":true,"plazaId":"mol-jamadi","interactive":true},"geometry":{"type":"Polygon","coordinates":[[[-100.335373,20.677339],[-100.334921,20.677166],[-100.334995,20.676996],[-100.33475,20.677077],[-100.334742,20.677097],[-100.334711,20.677085],[-100.334539,20.677142],[-100.334528,20.677169],[-100.334478,20.677185],[-100.334456,20.677235],[-100.334537,20.677267],[-100.334545,20.677289],[-100.33452,20.677345],[-100.334578,20.677368],[-100.334588,20.677394],[-100.334634,20.677412],[-100.334676,20.677398],[-100.334816,20.677452],[-100.334792,20.67746],[-100.335233,20.677629],[-100.335255,20.677578],[-100.335269,20.677583],[-100.335429,20.67753],[-100.335464,20.677449],[-100.335518,20.677432],[-100.335555,20.677346],[-100.335397,20.677286],[-100.335373,20.677339],[-100.335373,20.677339]]]}},{"type":"Feature","properties":{"id":8299,"height":7.6,"type":"commercial","src":"microsoft","inside":true,"plazaId":"plaza-walmart","interactive":true},"geometry":{"type":"Polygon","coordinates":[[[-100.317805,20.68283],[-100.318004,20.68244],[-100.317629,20.682272],[-100.317547,20.682431],[-100.317425,20.682376],[-100.317345,20.682534],[-100.317436,20.682575],[-100.317392,20.682663],[-100.317461,20.682694],[-100.317469,20.682679],[-100.317805,20.68283]]]}},{"type":"Feature","properties":{"id":13599,"height":7,"type":"commercial","src":"google","inside":true,"plazaId":"plaza-walmart","interactive":true},"geometry":{"type":"Polygon","coordinates":[[[-100.317364,20.682379],[-100.317329,20.682435],[-100.317352,20.682448],[-100.317387,20.682391],[-100.317364,20.682379]]]}},{"type":"Feature","properties":{"id":14050,"height":4,"type":"commercial","src":"synthetic","inside":true,"plazaId":"foodtrucks-pickleball","interactive":true},"geometry":{"type":"Polygon","coordinates":[[[-100.31586,20.680078],[-100.315999,20.679905],[-100.31574,20.679722],[-100.315601,20.679895],[-100.31586,20.680078]]]}},{"type":"Feature","properties":{"id":14053,"height":10,"type":"commercial","src":"synthetic","inside":true,"plazaId":"distrito-nandu","interactive":true},"geometry":{"type":"Polygon","coordinates":[[[-100.349798,20.68562],[-100.34981,20.685864],[-100.350382,20.68584],[-100.35037,20.685596],[-100.349798,20.68562]]]}}]}